{
  "type": "FeatureCollection",
  "features": [
    {
      "type": "Feature",
      "properties": {
        "norad_id": 37562,
        "name": "IRIDIUM 33 DEB",
        "group": "iridium-33-debris",
        "lat": 23.76401708558422,
        "lon": -139.94541879319624,
        "alt_km": 695.2496585093695,
        "timestamp": "2025-12-17T04:57:44.747071+00:00",
        "meta_object_name": "IRIDIUM 33 DEB",
        "meta_object_id": "1997-051XX",
        "meta_epoch": "2025-12-16T22:12:28.072224",
        "meta_mean_motion": 14.56512881,
        "meta_eccentricity": 0.00265537,
        "meta_inclination": 86.3751,
        "meta_ra_of_asc_node": 41.7767,
        "meta_arg_of_pericenter": 94.665,
        "meta_mean_anomaly": 26.3647,
        "meta_ephemeris_type": 0,
        "meta_classification_type": "U",
        "meta_norad_cat_id": 37562,
        "meta_element_set_no": 999,
        "meta_rev_at_epoch": 86389,
        "meta_bstar": 0.00076013529,
        "meta_mean_motion_dot": 3.418e-05,
        "meta_mean_motion_ddot": 0,
        "tle_line1": "1 37562U 97051XX  25350.92532491  .00003418  00000+0  76014-3 0  9991",
        "tle_line2": "2 37562  86.3751  41.7767 0026553  94.6650  26.3647 14.56512881863891"
      },
      "geometry": {
        "type": "Point",
        "coordinates": [
          -139.94541879319624,
          23.76401708558422
        ]
      }
    },
    {
      "type": "Feature",
      "properties": {
        "norad_id": 37565,
        "name": "IRIDIUM 33 DEB",
        "group": "iridium-33-debris",
        "lat": -36.81407599897704,
        "lon": -169.6287104954135,
        "alt_km": 735.9674407626653,
        "timestamp": "2025-12-17T04:57:44.747080+00:00",
        "meta_object_name": "IRIDIUM 33 DEB",
        "meta_object_id": "1997-051YA",
        "meta_epoch": "2025-12-16T08:06:50.433408",
        "meta_mean_motion": 14.51532577,
        "meta_eccentricity": 0.00151174,
        "meta_inclination": 86.3492,
        "meta_ra_of_asc_node": 8.0105,
        "meta_arg_of_pericenter": 73.8183,
        "meta_mean_anomaly": 286.4685,
        "meta_ephemeris_type": 0,
        "meta_classification_type": "U",
        "meta_norad_cat_id": 37565,
        "meta_element_set_no": 999,
        "meta_rev_at_epoch": 65889,
        "meta_bstar": 0.00040818811,
        "meta_mean_motion_dot": 1.655e-05,
        "meta_mean_motion_ddot": 0,
        "tle_line1": "1 37565U 97051YA  25350.33808372  .00001655  00000+0  40819-3 0  9998",
        "tle_line2": "2 37565  86.3492   8.0105 0015117  73.8183 286.4685 14.51532577658894"
      },
      "geometry": {
        "type": "Point",
        "coordinates": [
          -169.6287104954135,
          -36.81407599897704
        ]
      }
    },
    {
      "type": "Feature",
      "properties": {
        "norad_id": 38017,
        "name": "IRIDIUM 33 DEB",
        "group": "iridium-33-debris",
        "lat": -84.53802021542836,
        "lon": 26.28205721387605,
        "alt_km": 801.302883371899,
        "timestamp": "2025-12-17T04:57:44.747089+00:00",
        "meta_object_name": "IRIDIUM 33 DEB",
        "meta_object_id": "1997-051YD",
        "meta_epoch": "2025-12-15T05:20:28.842720",
        "meta_mean_motion": 14.49104048,
        "meta_eccentricity": 0.00921394,
        "meta_inclination": 86.3417,
        "meta_ra_of_asc_node": 165.1477,
        "meta_arg_of_pericenter": 94.6566,
        "meta_mean_anomaly": 266.5169,
        "meta_ephemeris_type": 0,
        "meta_classification_type": "U",
        "meta_norad_cat_id": 38017,
        "meta_element_set_no": 999,
        "meta_rev_at_epoch": 61438,
        "meta_bstar": 0.0029139765,
        "meta_mean_motion_dot": 0.00011718,
        "meta_mean_motion_ddot": 0,
        "tle_line1": "1 38017U 97051YD  25349.22255605  .00011718  00000+0  29140-2 0  9996",
        "tle_line2": "2 38017  86.3417 165.1477 0092139  94.6566 266.5169 14.49104048614383"
      },
      "geometry": {
        "type": "Point",
        "coordinates": [
          26.28205721387605,
          -84.53802021542836
        ]
      }
    },
    {
      "type": "Feature",
      "properties": {
        "norad_id": 38022,
        "name": "IRIDIUM 33 DEB",
        "group": "iridium-33-debris",
        "lat": -77.86480609106071,
        "lon": -3.1809117426304994,
        "alt_km": 775.3213964863999,
        "timestamp": "2025-12-17T04:57:44.747098+00:00",
        "meta_object_name": "IRIDIUM 33 DEB",
        "meta_object_id": "1997-051YJ",
        "meta_epoch": "2025-12-16T19:19:39.728352",
        "meta_mean_motion": 14.41275031,
        "meta_eccentricity": 0.00461893,
        "meta_inclination": 86.2686,
        "meta_ra_of_asc_node": 14.6628,
        "meta_arg_of_pericenter": 37.5381,
        "meta_mean_anomaly": 322.9028,
        "meta_ephemeris_type": 0,
        "meta_classification_type": "U",
        "meta_norad_cat_id": 38022,
        "meta_element_set_no": 999,
        "meta_rev_at_epoch": 69252,
        "meta_bstar": 0.00076326479,
        "meta_mean_motion_dot": 2.517e-05,
        "meta_mean_motion_ddot": 0,
        "tle_line1": "1 38022U 97051YJ  25350.80532093  .00002517  00000+0  76326-3 0  9993",
        "tle_line2": "2 38022  86.2686  14.6628 0046189  37.5381 322.9028 14.41275031692523"
      },
      "geometry": {
        "type": "Point",
        "coordinates": [
          -3.1809117426304994,
          -77.86480609106071
        ]
      }
    },
    {
      "type": "Feature",
      "properties": {
        "norad_id": 38028,
        "name": "IRIDIUM 33 DEB",
        "group": "iridium-33-debris",
        "lat": 34.99114932051199,
        "lon": 175.75130469432577,
        "alt_km": 718.9051072053417,
        "timestamp": "2025-12-17T04:57:44.747107+00:00",
        "meta_object_name": "IRIDIUM 33 DEB",
        "meta_object_id": "1997-051YQ",
        "meta_epoch": "2025-12-16T18:20:01.722912",
        "meta_mean_motion": 14.46184882,
        "meta_eccentricity": 0.00302609,
        "meta_inclination": 86.3259,
        "meta_ra_of_asc_node": 358.5216,
        "meta_arg_of_pericenter": 108.2751,
        "meta_mean_anomaly": 252.1749,
        "meta_ephemeris_type": 0,
        "meta_classification_type": "U",
        "meta_norad_cat_id": 38028,
        "meta_element_set_no": 999,
        "meta_rev_at_epoch": 65553,
        "meta_bstar": 0.00020847815,
        "meta_mean_motion_dot": 7.7e-06,
        "meta_mean_motion_ddot": 0,
        "tle_line1": "1 38028U 97051YQ  25350.76390883  .00000770  00000+0  20848-3 0  9990",
        "tle_line2": "2 38028  86.3259 358.5216 0030260 108.2751 252.1749 14.46184882655531"
      },
      "geometry": {
        "type": "Point",
        "coordinates": [
          175.75130469432577,
          34.99114932051199
        ]
      }
    },
    {
      "type": "Feature",
      "properties": {
        "norad_id": 38228,
        "name": "IRIDIUM 33 DEB",
        "group": "iridium-33-debris",
        "lat": 45.29066026785821,
        "lon": -137.18243940675575,
        "alt_km": 761.6134489999467,
        "timestamp": "2025-12-17T04:57:44.747117+00:00",
        "meta_object_name": "IRIDIUM 33 DEB",
        "meta_object_id": "1997-051ZC",
        "meta_epoch": "2025-12-15T22:37:05.354976",
        "meta_mean_motion": 14.27271769,
        "meta_eccentricity": 0.00646384,
        "meta_inclination": 86.2946,
        "meta_ra_of_asc_node": 47.1084,
        "meta_arg_of_pericenter": 179.0762,
        "meta_mean_anomaly": 303.5549,
        "meta_ephemeris_type": 0,
        "meta_classification_type": "U",
        "meta_norad_cat_id": 38228,
        "meta_element_set_no": 999,
        "meta_rev_at_epoch": 84827,
        "meta_bstar": 0.00027707855,
        "meta_mean_motion_dot": 7.12e-06,
        "meta_mean_motion_ddot": 0,
        "tle_line1": "1 38228U 97051ZC  25349.94242309  .00000712  00000+0  27708-3 0  9997",
        "tle_line2": "2 38228  86.2946  47.1084 0064638 179.0762 303.5549 14.27271769848277"
      },
      "geometry": {
        "type": "Point",
        "coordinates": [
          -137.18243940675575,
          45.29066026785821
        ]
      }
    },
    {
      "type": "Feature",
      "properties": {
        "norad_id": 38241,
        "name": "IRIDIUM 33 DEB",
        "group": "iridium-33-debris",
        "lat": 39.63565653243693,
        "lon": 165.5762269958931,
        "alt_km": 706.0744030188844,
        "timestamp": "2025-12-17T04:57:44.747126+00:00",
        "meta_object_name": "IRIDIUM 33 DEB",
        "meta_object_id": "1997-051ZR",
        "meta_epoch": "2025-12-13T06:13:58.226016",
        "meta_mean_motion": 14.54873749,
        "meta_eccentricity": 0.00056326,
        "meta_inclination": 86.3232,
        "meta_ra_of_asc_node": 350.3699,
        "meta_arg_of_pericenter": 72.2147,
        "meta_mean_anomaly": 287.9674,
        "meta_ephemeris_type": 0,
        "meta_classification_type": "U",
        "meta_norad_cat_id": 38241,
        "meta_element_set_no": 999,
        "meta_rev_at_epoch": 60208,
        "meta_bstar": 0.0012492013,
        "meta_mean_motion_dot": 5.385e-05,
        "meta_mean_motion_ddot": 0,
        "tle_line1": "1 38241U 97051ZR  25347.25970169  .00005385  00000+0  12492-2 0  9990",
        "tle_line2": "2 38241  86.3232 350.3699 0005632  72.2147 287.9674 14.54873749602089"
      },
      "geometry": {
        "type": "Point",
        "coordinates": [
          165.5762269958931,
          39.63565653243693
        ]
      }
    }
  ]
}